ATLAS CENTAUR 2         
1 00694U 63047A   26053.06266171  .00001095  00000+0  11991-3 0  9992
2 00694  30.3565 282.9753 0548113 302.5696  52.3109 14.12018178129412
THOR AGENA D R/B        
1 00733U 64002A   26053.03242677  .00000191  00000+0  85373-4 0  9992
2 00733  99.1230  65.5167 0032090 305.1447  54.6730 14.34009749236059
SL-3 R/B                
1 00877U 64053B   26053.15726394  .00000307  00000+0  83579-4 0  9998
2 00877  65.0780  16.7718 0079080 297.1496  62.1556 14.61350522264525
SL-8 R/B                
1 02802U 67045B   26053.14287970  .00000384  00000+0  11386-3 0  9994
2 02802  74.0122  17.1206 0063565  27.1363 333.3093 14.45604722 86771
SL-8 R/B                
1 03230U 68040B   26052.93648501  .00002957  00000+0  22065-3 0  9997
2 03230  74.0332 345.8775 0024642 174.6755 185.4701 15.03129968 87646
OAO 2                   
1 03597U 68110A   26053.12285455  .00000212  00000+0  62354-4 0  9996
2 03597  34.9948 352.1354 0004852  71.3732 288.7485 14.47297102 16846
ISIS 1                  
1 03669U 69009A   26052.78820554  .00000156  00000+0  94474-4 0  9995
2 03669  88.4555 157.0413 1707822 121.2445 256.7223 11.30408184346738
SERT 2                  
1 04327U 70009A   26053.07858743  .00000026  00000+0  92075-4 0  9994
2 04327  99.2739 357.0282 0004438 195.8844 181.4514 13.58728184777778
SL-3 R/B                
1 05118U 71028B   26053.13750660  .00032419  00000+0  40182-3 0  9993
2 05118  81.2329  71.2205 0015738 348.7980  11.2919 15.59732295986242
ASTEX 1                 
1 05560U 71089A   26053.16517814  .00000450  00000+0  11452-3 0  9994
2 05560  92.7141 146.7383 0017331 132.1198 228.1485 14.50750072860054
SL-8 R/B                
1 05730U 71119B   26052.79064696  .00013832  00000+0  71779-3 0  9996
2 05730  73.8865 205.4247 0551808 175.3467 185.3143 14.37335106653202
OAO 3 (COPERNICUS)      
1 06153U 72065A   26053.07680816  .00000334  00000+0  72858-4 0  9990
2 06153  35.0066  26.2654 0006224  28.1575  40.3650 14.59982895843917
