CCSDS_OMM_VERS = 2.0
CREATION_DATE  = 
ORIGINATOR     = 

OBJECT_NAME    = ATLAS CENTAUR 2
OBJECT_ID      = 1963-047A
CENTER_NAME    = EARTH
REF_FRAME      = TEME
TIME_SYSTEM    = UTC
MEAN_ELEMENT_THEORY = SGP/SGP4

EPOCH          = 2026-02-22T01:30:13.971744
MEAN_MOTION    = 14.12018178
ECCENTRICITY   = .0548113
INCLINATION    = 30.3565
RA_OF_ASC_NODE = 282.9753
ARG_OF_PERICENTER = 302.5696
MEAN_ANOMALY   = 52.3109

EPHEMERIS_TYPE = 0
CLASSIFICATION_TYPE = U
NORAD_CAT_ID   = 694
ELEMENT_SET_NO = 999
REV_AT_EPOCH   = 12941
BSTAR          = .11991E-3
MEAN_MOTION_DOT = .1095E-4
MEAN_MOTION_DDOT = 0

CCSDS_OMM_VERS = 2.0
CREATION_DATE  = 
ORIGINATOR     = 

OBJECT_NAME    = THOR AGENA D R/B
OBJECT_ID      = 1964-002A
CENTER_NAME    = EARTH
REF_FRAME      = TEME
TIME_SYSTEM    = UTC
MEAN_ELEMENT_THEORY = SGP/SGP4

EPOCH          = 2026-02-22T00:46:41.672928
MEAN_MOTION    = 14.34009749
ECCENTRICITY   = .003209
INCLINATION    = 99.1230
RA_OF_ASC_NODE = 65.5167
ARG_OF_PERICENTER = 305.1447
MEAN_ANOMALY   = 54.6730

EPHEMERIS_TYPE = 0
CLASSIFICATION_TYPE = U
NORAD_CAT_ID   = 733
ELEMENT_SET_NO = 999
REV_AT_EPOCH   = 23605
BSTAR          = .85373E-4
MEAN_MOTION_DOT = .191E-5
MEAN_MOTION_DDOT = 0

CCSDS_OMM_VERS = 2.0
CREATION_DATE  = 
ORIGINATOR     = 

OBJECT_NAME    = SL-3 R/B
OBJECT_ID      = 1964-053B
CENTER_NAME    = EARTH
REF_FRAME      = TEME
TIME_SYSTEM    = UTC
MEAN_ELEMENT_THEORY = SGP/SGP4

EPOCH          = 2026-02-22T03:46:27.604416
MEAN_MOTION    = 14.61350522
ECCENTRICITY   = .007908
INCLINATION    = 65.0780
RA_OF_ASC_NODE = 16.7718
ARG_OF_PERICENTER = 297.1496
MEAN_ANOMALY   = 62.1556

EPHEMERIS_TYPE = 0
CLASSIFICATION_TYPE = U
NORAD_CAT_ID   = 877
ELEMENT_SET_NO = 999
REV_AT_EPOCH   = 26452
BSTAR          = .83579E-4
MEAN_MOTION_DOT = .307E-5
MEAN_MOTION_DDOT = 0

CCSDS_OMM_VERS = 2.0
CREATION_DATE  = 
ORIGINATOR     = 

OBJECT_NAME    = SL-8 R/B
OBJECT_ID      = 1967-045B
CENTER_NAME    = EARTH
REF_FRAME      = TEME
TIME_SYSTEM    = UTC
MEAN_ELEMENT_THEORY = SGP/SGP4

EPOCH          = 2026-02-22T03:25:44.806080
MEAN_MOTION    = 14.45604722
ECCENTRICITY   = .0063565
INCLINATION    = 74.0122
RA_OF_ASC_NODE = 17.1206
ARG_OF_PERICENTER = 27.1363
MEAN_ANOMALY   = 333.3093

EPHEMERIS_TYPE = 0
CLASSIFICATION_TYPE = U
NORAD_CAT_ID   = 2802
ELEMENT_SET_NO = 999
REV_AT_EPOCH   = 8677
BSTAR          = .11386E-3
MEAN_MOTION_DOT = .384E-5
MEAN_MOTION_DDOT = 0

CCSDS_OMM_VERS = 2.0
CREATION_DATE  = 
ORIGINATOR     = 

OBJECT_NAME    = SL-8 R/B
OBJECT_ID      = 1968-040B
CENTER_NAME    = EARTH
REF_FRAME      = TEME
TIME_SYSTEM    = UTC
MEAN_ELEMENT_THEORY = SGP/SGP4

EPOCH          = 2026-02-21T22:28:32.304864
MEAN_MOTION    = 15.03129968
ECCENTRICITY   = .0024642
INCLINATION    = 74.0332
RA_OF_ASC_NODE = 345.8775
ARG_OF_PERICENTER = 174.6755
MEAN_ANOMALY   = 185.4701

EPHEMERIS_TYPE = 0
CLASSIFICATION_TYPE = U
NORAD_CAT_ID   = 3230
ELEMENT_SET_NO = 999
REV_AT_EPOCH   = 8764
BSTAR          = .22065E-3
MEAN_MOTION_DOT = .2957E-4
MEAN_MOTION_DDOT = 0

CCSDS_OMM_VERS = 2.0
CREATION_DATE  = 
ORIGINATOR     = 

OBJECT_NAME    = OAO 2
OBJECT_ID      = 1968-110A
CENTER_NAME    = EARTH
REF_FRAME      = TEME
TIME_SYSTEM    = UTC
MEAN_ELEMENT_THEORY = SGP/SGP4

EPOCH          = 2026-02-22T02:56:54.633120
MEAN_MOTION    = 14.47297102
ECCENTRICITY   = .0004852
INCLINATION    = 34.9948
RA_OF_ASC_NODE = 352.1354
ARG_OF_PERICENTER = 71.3732
MEAN_ANOMALY   = 288.7485

EPHEMERIS_TYPE = 0
CLASSIFICATION_TYPE = U
NORAD_CAT_ID   = 3597
ELEMENT_SET_NO = 999
REV_AT_EPOCH   = 1684
BSTAR          = .62354E-4
MEAN_MOTION_DOT = .212E-5
MEAN_MOTION_DDOT = 0

CCSDS_OMM_VERS = 2.0
CREATION_DATE  = 
ORIGINATOR     = 

OBJECT_NAME    = ISIS 1
OBJECT_ID      = 1969-009A
CENTER_NAME    = EARTH
REF_FRAME      = TEME
TIME_SYSTEM    = UTC
MEAN_ELEMENT_THEORY = SGP/SGP4

EPOCH          = 2026-02-21T18:55:00.958656
MEAN_MOTION    = 11.30408184
ECCENTRICITY   = .1707822
INCLINATION    = 88.4555
RA_OF_ASC_NODE = 157.0413
ARG_OF_PERICENTER = 121.2445
MEAN_ANOMALY   = 256.7223

EPHEMERIS_TYPE = 0
CLASSIFICATION_TYPE = U
NORAD_CAT_ID   = 3669
ELEMENT_SET_NO = 999
REV_AT_EPOCH   = 34673
BSTAR          = .94474E-4
MEAN_MOTION_DOT = .156E-5
MEAN_MOTION_DDOT = 0

CCSDS_OMM_VERS = 2.0
CREATION_DATE  = 
ORIGINATOR     = 

OBJECT_NAME    = SERT 2
OBJECT_ID      = 1970-009A
CENTER_NAME    = EARTH
REF_FRAME      = TEME
TIME_SYSTEM    = UTC
MEAN_ELEMENT_THEORY = SGP/SGP4

EPOCH          = 2026-02-22T01:53:09.953952
MEAN_MOTION    = 13.58728184
ECCENTRICITY   = .0004438
INCLINATION    = 99.2739
RA_OF_ASC_NODE = 357.0282
ARG_OF_PERICENTER = 195.8844
MEAN_ANOMALY   = 181.4514

EPHEMERIS_TYPE = 0
CLASSIFICATION_TYPE = U
NORAD_CAT_ID   = 4327
ELEMENT_SET_NO = 999
REV_AT_EPOCH   = 77777
BSTAR          = .92075E-4
MEAN_MOTION_DOT = .26E-6
MEAN_MOTION_DDOT = 0

CCSDS_OMM_VERS = 2.0
CREATION_DATE  = 
ORIGINATOR     = 

OBJECT_NAME    = SL-3 R/B
OBJECT_ID      = 1971-028B
CENTER_NAME    = EARTH
REF_FRAME      = TEME
TIME_SYSTEM    = UTC
MEAN_ELEMENT_THEORY = SGP/SGP4

EPOCH          = 2026-02-22T03:18:00.570240
MEAN_MOTION    = 15.59732295
ECCENTRICITY   = .0015738
INCLINATION    = 81.2329
RA_OF_ASC_NODE = 71.2205
ARG_OF_PERICENTER = 348.7980
MEAN_ANOMALY   = 11.2919

EPHEMERIS_TYPE = 0
CLASSIFICATION_TYPE = U
NORAD_CAT_ID   = 5118
ELEMENT_SET_NO = 999
REV_AT_EPOCH   = 98624
BSTAR          = .40182E-3
MEAN_MOTION_DOT = .32419E-3
MEAN_MOTION_DDOT = 0

CCSDS_OMM_VERS = 2.0
CREATION_DATE  = 
ORIGINATOR     = 

OBJECT_NAME    = ASTEX 1
OBJECT_ID      = 1971-089A
CENTER_NAME    = EARTH
REF_FRAME      = TEME
TIME_SYSTEM    = UTC
MEAN_ELEMENT_THEORY = SGP/SGP4

EPOCH          = 2026-02-22T03:57:51.391296
MEAN_MOTION    = 14.50750072
ECCENTRICITY   = .0017331
INCLINATION    = 92.7141
RA_OF_ASC_NODE = 146.7383
ARG_OF_PERICENTER = 132.1198
MEAN_ANOMALY   = 228.1485

EPHEMERIS_TYPE = 0
CLASSIFICATION_TYPE = U
NORAD_CAT_ID   = 5560
ELEMENT_SET_NO = 999
REV_AT_EPOCH   = 86005
BSTAR          = .11452E-3
MEAN_MOTION_DOT = .45E-5
MEAN_MOTION_DDOT = 0

CCSDS_OMM_VERS = 2.0
CREATION_DATE  = 
ORIGINATOR     = 

OBJECT_NAME    = SL-8 R/B
OBJECT_ID      = 1971-119B
CENTER_NAME    = EARTH
REF_FRAME      = TEME
TIME_SYSTEM    = UTC
MEAN_ELEMENT_THEORY = SGP/SGP4

EPOCH          = 2026-02-21T18:58:31.897344
MEAN_MOTION    = 14.37335106
ECCENTRICITY   = .0551808
INCLINATION    = 73.8865
RA_OF_ASC_NODE = 205.4247
ARG_OF_PERICENTER = 175.3467
MEAN_ANOMALY   = 185.3143

EPHEMERIS_TYPE = 0
CLASSIFICATION_TYPE = U
NORAD_CAT_ID   = 5730
ELEMENT_SET_NO = 999
REV_AT_EPOCH   = 65320
BSTAR          = .71779E-3
MEAN_MOTION_DOT = .13832E-3
MEAN_MOTION_DDOT = 0

CCSDS_OMM_VERS = 2.0
CREATION_DATE  = 
ORIGINATOR     = 

OBJECT_NAME    = OAO 3 (COPERNICUS)
OBJECT_ID      = 1972-065A
CENTER_NAME    = EARTH
REF_FRAME      = TEME
TIME_SYSTEM    = UTC
MEAN_ELEMENT_THEORY = SGP/SGP4

EPOCH          = 2026-02-22T01:50:36.225024
MEAN_MOTION    = 14.59982895
ECCENTRICITY   = .0006224
INCLINATION    = 35.0066
RA_OF_ASC_NODE = 26.2654
ARG_OF_PERICENTER = 28.1575
MEAN_ANOMALY   = 40.3650

EPHEMERIS_TYPE = 0
CLASSIFICATION_TYPE = U
NORAD_CAT_ID   = 6153
ELEMENT_SET_NO = 999
REV_AT_EPOCH   = 84391
BSTAR          = .72858E-4
MEAN_MOTION_DOT = .334E-5
MEAN_MOTION_DDOT = 0

